CCSDS_OMM_VERS = 2.0
CREATION_DATE  = 
ORIGINATOR     = 

OBJECT_NAME    = STARLINK-36888
OBJECT_ID      = 2026-039U
CENTER_NAME    = EARTH
REF_FRAME      = TEME
TIME_SYSTEM    = UTC
MEAN_ELEMENT_THEORY = SGP/SGP4

EPOCH          = 2026-03-25T22:00:00.999936
MEAN_MOTION    = 15.36595433
ECCENTRICITY   = .00012631
INCLINATION    = 42.9996
RA_OF_ASC_NODE = 317.8934
ARG_OF_PERICENTER = 278.8533
MEAN_ANOMALY   = 244.8441

EPHEMERIS_TYPE = 0
CLASSIFICATION_TYPE = U
NORAD_CAT_ID   = 68004
ELEMENT_SET_NO = 999
REV_AT_EPOCH   = 548
BSTAR          = -.5719834E-1
MEAN_MOTION_DOT = -.1872403E-1
MEAN_MOTION_DDOT = 0

CCSDS_OMM_VERS = 2.0
CREATION_DATE  = 
ORIGINATOR     = 

OBJECT_NAME    = STARLINK-36910
OBJECT_ID      = 2026-039V
CENTER_NAME    = EARTH
REF_FRAME      = TEME
TIME_SYSTEM    = UTC
MEAN_ELEMENT_THEORY = SGP/SGP4

EPOCH          = 2026-03-25T22:00:00.999936
MEAN_MOTION    = 15.36505005
ECCENTRICITY   = .00012115
INCLINATION    = 42.9991
RA_OF_ASC_NODE = 317.6311
ARG_OF_PERICENTER = 250.2236
MEAN_ANOMALY   = 19.4219

EPHEMERIS_TYPE = 0
CLASSIFICATION_TYPE = U
NORAD_CAT_ID   = 68005
ELEMENT_SET_NO = 999
REV_AT_EPOCH   = 548
BSTAR          = -.56431787E-1
MEAN_MOTION_DOT = -.1844941E-1
MEAN_MOTION_DDOT = 0

CCSDS_OMM_VERS = 2.0
CREATION_DATE  = 
ORIGINATOR     = 

OBJECT_NAME    = STARLINK-36889
OBJECT_ID      = 2026-039W
CENTER_NAME    = EARTH
REF_FRAME      = TEME
TIME_SYSTEM    = UTC
MEAN_ELEMENT_THEORY = SGP/SGP4

EPOCH          = 2026-03-25T22:00:00.999936
MEAN_MOTION    = 15.46116618
ECCENTRICITY   = .00010317
INCLINATION    = 43.0005
RA_OF_ASC_NODE = 317.7748
ARG_OF_PERICENTER = 279.4558
MEAN_ANOMALY   = 292.7375

EPHEMERIS_TYPE = 0
CLASSIFICATION_TYPE = U
NORAD_CAT_ID   = 68006
ELEMENT_SET_NO = 999
REV_AT_EPOCH   = 548
BSTAR          = -.42620097E-1
MEAN_MOTION_DOT = -.1916874E-1
MEAN_MOTION_DDOT = 0

CCSDS_OMM_VERS = 2.0
CREATION_DATE  = 
ORIGINATOR     = 

OBJECT_NAME    = STARLINK-36592
OBJECT_ID      = 2026-039X
CENTER_NAME    = EARTH
REF_FRAME      = TEME
TIME_SYSTEM    = UTC
MEAN_ELEMENT_THEORY = SGP/SGP4

EPOCH          = 2026-03-25T22:00:00.999936
MEAN_MOTION    = 15.40330706
ECCENTRICITY   = .00014638
INCLINATION    = 42.9993
RA_OF_ASC_NODE = 317.5615
ARG_OF_PERICENTER = 247.1952
MEAN_ANOMALY   = 51.2932

EPHEMERIS_TYPE = 0
CLASSIFICATION_TYPE = U
NORAD_CAT_ID   = 68007
ELEMENT_SET_NO = 999
REV_AT_EPOCH   = 548
BSTAR          = -.50188278E-1
MEAN_MOTION_DOT = -.1859884E-1
MEAN_MOTION_DDOT = 0

CCSDS_OMM_VERS = 2.0
CREATION_DATE  = 
ORIGINATOR     = 

OBJECT_NAME    = STARLINK-36911
OBJECT_ID      = 2026-039Y
CENTER_NAME    = EARTH
REF_FRAME      = TEME
TIME_SYSTEM    = UTC
MEAN_ELEMENT_THEORY = SGP/SGP4

EPOCH          = 2026-03-25T22:00:00.999936
MEAN_MOTION    = 15.44204768
ECCENTRICITY   = .00012578
INCLINATION    = 42.9994
RA_OF_ASC_NODE = 317.5837
ARG_OF_PERICENTER = 253.7264
MEAN_ANOMALY   = 36.0326

EPHEMERIS_TYPE = 0
CLASSIFICATION_TYPE = U
NORAD_CAT_ID   = 68008
ELEMENT_SET_NO = 999
REV_AT_EPOCH   = 548
BSTAR          = -.44435271E-1
MEAN_MOTION_DOT = -.1875547E-1
MEAN_MOTION_DDOT = 0

CCSDS_OMM_VERS = 2.0
CREATION_DATE  = 
ORIGINATOR     = 

OBJECT_NAME    = STARLINK-36956
OBJECT_ID      = 2026-039Z
CENTER_NAME    = EARTH
REF_FRAME      = TEME
TIME_SYSTEM    = UTC
MEAN_ELEMENT_THEORY = SGP/SGP4

EPOCH          = 2026-03-25T22:00:00.999936
MEAN_MOTION    = 15.46395031
ECCENTRICITY   = .00012176
INCLINATION    = 42.9997
RA_OF_ASC_NODE = 317.6260
ARG_OF_PERICENTER = 241.8657
MEAN_ANOMALY   = 30.9571

EPHEMERIS_TYPE = 0
CLASSIFICATION_TYPE = U
NORAD_CAT_ID   = 68009
ELEMENT_SET_NO = 999
REV_AT_EPOCH   = 548
BSTAR          = -.41065644E-1
MEAN_MOTION_DOT = -.1870232E-1
MEAN_MOTION_DDOT = 0

CCSDS_OMM_VERS = 2.0
CREATION_DATE  = 
ORIGINATOR     = 

OBJECT_NAME    = STARLINK-36953
OBJECT_ID      = 2026-039AA
CENTER_NAME    = EARTH
REF_FRAME      = TEME
TIME_SYSTEM    = UTC
MEAN_ELEMENT_THEORY = SGP/SGP4

EPOCH          = 2026-03-25T22:00:00.999936
MEAN_MOTION    = 15.38904516
ECCENTRICITY   = .00015289
INCLINATION    = 42.9994
RA_OF_ASC_NODE = 317.2316
ARG_OF_PERICENTER = 272.9233
MEAN_ANOMALY   = 158.4851

EPHEMERIS_TYPE = 0
CLASSIFICATION_TYPE = U
NORAD_CAT_ID   = 68010
ELEMENT_SET_NO = 999
REV_AT_EPOCH   = 548
BSTAR          = -.52660592E-1
MEAN_MOTION_DOT = -.1861047E-1
MEAN_MOTION_DDOT = 0

CCSDS_OMM_VERS = 2.0
CREATION_DATE  = 
ORIGINATOR     = 

OBJECT_NAME    = STARLINK-36991
OBJECT_ID      = 2026-039AB
CENTER_NAME    = EARTH
REF_FRAME      = TEME
TIME_SYSTEM    = UTC
MEAN_ELEMENT_THEORY = SGP/SGP4

EPOCH          = 2026-03-25T21:58:29.024544
MEAN_MOTION    = 15.50639042
ECCENTRICITY   = .00023135
INCLINATION    = 43.0002
RA_OF_ASC_NODE = 318.2851
ARG_OF_PERICENTER = 263.7955
MEAN_ANOMALY   = 96.2642

EPHEMERIS_TYPE = 0
CLASSIFICATION_TYPE = U
NORAD_CAT_ID   = 68011
ELEMENT_SET_NO = 999
REV_AT_EPOCH   = 417
BSTAR          = .12156818E-2
MEAN_MOTION_DOT = .7179E-3
MEAN_MOTION_DDOT = 0

CCSDS_OMM_VERS = 2.0
CREATION_DATE  = 
ORIGINATOR     = 

OBJECT_NAME    = STARLINK-36936
OBJECT_ID      = 2026-039AC
CENTER_NAME    = EARTH
REF_FRAME      = TEME
TIME_SYSTEM    = UTC
MEAN_ELEMENT_THEORY = SGP/SGP4

EPOCH          = 2026-03-25T22:16:35.508864
MEAN_MOTION    = 15.50610884
ECCENTRICITY   = .0002109
INCLINATION    = 43.0009
RA_OF_ASC_NODE = 317.4949
ARG_OF_PERICENTER = 267.3540
MEAN_ANOMALY   = 92.7079

EPHEMERIS_TYPE = 0
CLASSIFICATION_TYPE = U
NORAD_CAT_ID   = 68012
ELEMENT_SET_NO = 999
REV_AT_EPOCH   = 418
BSTAR          = .10912785E-2
MEAN_MOTION_DOT = .64281E-3
MEAN_MOTION_DDOT = 0

CCSDS_OMM_VERS = 2.0
CREATION_DATE  = 
ORIGINATOR     = 

OBJECT_NAME    = STARLINK-36967
OBJECT_ID      = 2026-039AD
CENTER_NAME    = EARTH
REF_FRAME      = TEME
TIME_SYSTEM    = UTC
MEAN_ELEMENT_THEORY = SGP/SGP4

EPOCH          = 2026-03-25T17:12:30.758688
MEAN_MOTION    = 15.50627287
ECCENTRICITY   = .00020837
INCLINATION    = 43.0010
RA_OF_ASC_NODE = 319.3727
ARG_OF_PERICENTER = 274.9637
MEAN_ANOMALY   = 85.0986

EPHEMERIS_TYPE = 0
CLASSIFICATION_TYPE = U
NORAD_CAT_ID   = 68013
ELEMENT_SET_NO = 999
REV_AT_EPOCH   = 414
BSTAR          = .99669438E-3
MEAN_MOTION_DOT = .58672E-3
MEAN_MOTION_DDOT = 0

CCSDS_OMM_VERS = 2.0
CREATION_DATE  = 
ORIGINATOR     = 

OBJECT_NAME    = STARLINK-36985
OBJECT_ID      = 2026-039AE
CENTER_NAME    = EARTH
REF_FRAME      = TEME
TIME_SYSTEM    = UTC
MEAN_ELEMENT_THEORY = SGP/SGP4

EPOCH          = 2026-03-25T22:00:00.999936
MEAN_MOTION    = 15.39945250
ECCENTRICITY   = .00013921
INCLINATION    = 43.0000
RA_OF_ASC_NODE = 317.1529
ARG_OF_PERICENTER = 279.4795
MEAN_ANOMALY   = 183.7293

EPHEMERIS_TYPE = 0
CLASSIFICATION_TYPE = U
NORAD_CAT_ID   = 68014
ELEMENT_SET_NO = 999
REV_AT_EPOCH   = 548
BSTAR          = -.50868655E-1
MEAN_MOTION_DOT = -.1860865E-1
MEAN_MOTION_DDOT = 0

CCSDS_OMM_VERS = 2.0
CREATION_DATE  = 
ORIGINATOR     = 

OBJECT_NAME    = STARLINK-36335
OBJECT_ID      = 2026-040A
CENTER_NAME    = EARTH
REF_FRAME      = TEME
TIME_SYSTEM    = UTC
MEAN_ELEMENT_THEORY = SGP/SGP4

EPOCH          = 2026-03-25T14:00:01.999872
MEAN_MOTION    = 15.75224462
ECCENTRICITY   = .00015269
INCLINATION    = 97.2856
RA_OF_ASC_NODE = 33.8087
ARG_OF_PERICENTER = 106.8878
MEAN_ANOMALY   = 12.3392

EPHEMERIS_TYPE = 0
CLASSIFICATION_TYPE = U
NORAD_CAT_ID   = 68015
ELEMENT_SET_NO = 999
REV_AT_EPOCH   = 493
BSTAR          = -.43345646E-3
MEAN_MOTION_DOT = -.64395E-3
MEAN_MOTION_DDOT = 0

