STARLINK-36888          
1 68004U 26039U   26084.91667824 -.01872403  00000+0 -57198-1 0  9998
2 68004  42.9996 317.8934 0001263 278.8533 244.8441 15.36595433  5480
STARLINK-36910          
1 68005U 26039V   26084.91667824 -.01844941  00000+0 -56432-1 0  9995
2 68005  42.9991 317.6311 0001211 250.2236  19.4219 15.36505005  5485
STARLINK-36889          
1 68006U 26039W   26084.91667824 -.01916874  00000+0 -42620-1 0  9995
2 68006  43.0005 317.7748 0001031 279.4558 292.7375 15.46116618  5487
STARLINK-36592          
1 68007U 26039X   26084.91667824 -.01859884  00000+0 -50188-1 0  9991
2 68007  42.9993 317.5615 0001463 247.1952  51.2932 15.40330706  5489
STARLINK-36911          
1 68008U 26039Y   26084.91667824 -.01875547  00000+0 -44435-1 0  9994
2 68008  42.9994 317.5837 0001257 253.7264  36.0326 15.44204768  5487
STARLINK-36956          
1 68009U 26039Z   26084.91667824 -.01870232  00000+0 -41066-1 0  9998
2 68009  42.9997 317.6260 0001217 241.8657  30.9571 15.46395031  5483
STARLINK-36953          
1 68010U 26039AA  26084.91667824 -.01861047  00000+0 -52661-1 0  9997
2 68010  42.9994 317.2316 0001528 272.9233 158.4851 15.38904516  5482
STARLINK-36991          
1 68011U 26039AB  26084.91561371  .00071790  00000+0  12157-2 0  9990
2 68011  43.0002 318.2851 0002313 263.7955  96.2642 15.50639042  4177
STARLINK-36936          
1 68012U 26039AC  26084.92818876  .00064281  00000+0  10913-2 0  9992
2 68012  43.0009 317.4949 0002109 267.3540  92.7079 15.50610884  4186
STARLINK-36967          
1 68013U 26039AD  26084.71702267  .00058672  00000+0  99669-3 0  9999
2 68013  43.0010 319.3727 0002083 274.9637  85.0986 15.50627287  4149
STARLINK-36985          
1 68014U 26039AE  26084.91667824 -.01860865  00000+0 -50869-1 0  9996
2 68014  43.0000 317.1529 0001392 279.4795 183.7293 15.39945250  5487
STARLINK-36335          
1 68015U 26040A   26084.58335648 -.00064395  00000+0 -43346-3 0  9995
2 68015  97.2856  33.8087 0001526 106.8878  12.3392 15.75224462  4934
